NORAD_CAT_ID,OBJECT_NAME,OBJECT_TYPE,EPOCH,MEAN_MOTION,ECCENTRICITY,INCLINATION,RA_OF_ASC_NODE,ARG_OF_PERICENTER,MEAN_ANOMALY,BSTAR,MEAN_MOTION_DOT,MEAN_MOTION_DDOT,TLE_LINE0,TLE_LINE1,TLE_LINE2,SEMIMAJOR_AXIS,PERIOD,APOGEE,PERIGEE,DECAYED
55276.0,STARLINK-5261,PAYLOAD,2023-06-17 19:41:25,14.99293299,0.0003073,69.9988,15.5558,268.1847,91.8961,-0.00027877,-3.503e-05,0.0,0 STARLINK-5261,1 55276U 23010H   23168.82043780 -.00003503  00000-0 -27877-3 0  9990,2 55276  69.9988  15.5558 0003073 268.1847  91.8961 14.99293299 24090,6947.216,96.045,571.215,566.946,0.0
55276.0,STARLINK-5261,PAYLOAD,2023-06-17 22:00:01,14.99267079,0.0003284,70.0001,15.3128,273.4794,245.9993,0.0026045,0.00031892,0.0,0 STARLINK-5261,1 55276U 23010H   23168.91668981  .00031892  00000-0  26045-2 0  9991,2 55276  70.0001  15.3128 0003284 273.4794 245.9993 14.99267079 23806,6947.297,96.047,571.443,566.88,0.0
55276.0,STARLINK-5261,PAYLOAD,2023-06-18 06:53:55,14.99297639,0.0003189,69.9987,14.3765,270.3419,89.7375,-0.00024481,-3.088e-05,0.0,0 STARLINK-5261,1 55276U 23010H   23169.28745305 -.00003088  00000-0 -24481-3 0  9999,2 55276  69.9987  14.3765 0003189 270.3419  89.7375 14.99297639 24169,6947.202,96.045,571.283,566.852,0.0
55276.0,STARLINK-5261,PAYLOAD,2023-06-18 19:42:30,14.99290344,0.0003194,69.9986,13.0286,268.3796,91.6998,2.615e-05,2.26e-06,0.0,0 STARLINK-5261,1 55276U 23010H   23169.82118877  .00000226  00000-0  26150-4 0  9992,2 55276  69.9986  13.0286 0003194 268.3796  91.6998 14.99290344 23947,6947.225,96.045,571.309,566.871,0.0
55276.0,STARLINK-5261,PAYLOAD,2023-06-19 00:30:43,14.99291715,0.0003158,69.9986,12.5232,267.7397,92.3401,4.394e-05,4.44e-06,0.0,0 STARLINK-5261,1 55276U 23010H   23170.02133918  .00000444  00000-0  43940-4 0  9997,2 55276  69.9986  12.5232 0003158 267.7397  92.3401 14.99291715 24279,6947.22,96.045,571.279,566.892,0.0
55276.0,STARLINK-5261,PAYLOAD,2023-06-20 00:31:47,14.99301423,0.0003294,69.9983,9.9954,269.1071,90.9711,0.00021539,2.543e-05,0.0,0 STARLINK-5261,1 55276U 23010H   23171.02208319  .00002543  00000-0  21539-3 0  9997,2 55276  69.9983   9.9954 0003294 269.1071  90.9711 14.99301423 24123,6947.19,96.045,571.344,566.767,0.0
55276.0,STARLINK-5261,PAYLOAD,2023-06-20 06:56:05,14.99298657,0.0003327,69.9982,9.3211,269.1765,90.9014,0.00013601,1.571e-05,0.0,0 STARLINK-5261,1 55276U 23010H   23171.28895397  .00001571  00000-0  13601-3 0  9994,2 55276  69.9982   9.3211 0003327 269.1765  90.9014 14.99298657 24466,6947.199,96.045,571.375,566.753,0.0
55276.0,STARLINK-5261,PAYLOAD,2023-06-20 18:08:35,14.99300257,0.0003299,69.9983,8.1418,269.242,90.8362,7.6161e-05,8.38e-06,0.0,0 STARLINK-5261,1 55276U 23010H   23171.75597202  .00000838  00000-0  76161-4 0  9996,2 55276  69.9983   8.1418 0003299 269.2420  90.8362 14.99300257 24230,6947.194,96.045,571.351,566.767,0.0
55276.0,STARLINK-5261,PAYLOAD,2023-06-20 19:44:40,14.99301952,0.0003319,69.9983,7.9731,268.9925,91.0854,4.4822e-05,4.55e-06,0.0,0 STARLINK-5261,1 55276U 23010H   23171.82268845  .00000455  00000-0  44822-4 0  9996,2 55276  69.9983   7.9731 0003319 268.9925  91.0854 14.99301952 24540,6947.189,96.045,571.36,566.748,0.0
55276.0,STARLINK-5261,PAYLOAD,2023-06-21 13:21:27,14.99305079,0.0003053,69.9992,6.1204,271.6965,88.3845,-7.6892e-05,-1.035e-05,0.0,0 STARLINK-5261,1 55276U 23010H   23172.55657323 -.00001035  00000-0 -76892-4 0  9999,2 55276  69.9992   6.1204 0003053 271.6965  88.3845 14.99305079 24651,6947.179,96.044,571.165,566.923,0.0
55276.0,STARLINK-5261,PAYLOAD,2023-06-21 19:45:45,14.99303626,0.000293,69.9994,5.4464,267.9634,92.119,-1.8664e-05,-3.22e-06,0.0,0 STARLINK-5261,1 55276U 23010H   23172.82343861 -.00000322  00000-0 -18664-4 0  9999,2 55276  69.9994   5.4464 0002930 267.9634  92.1190 14.99303626 24390,6947.184,96.045,571.084,567.013,0.0
55276.0,STARLINK-5261,PAYLOAD,2023-06-22 19:46:50,14.99291388,0.0003081,69.9991,2.9199,271.0937,88.987,0.00016051,1.87e-05,0.0,0 STARLINK-5261,1 55276U 23010H   23173.82419019  .00001870  00000-0  16051-3 0  9993,2 55276  69.9991   2.9199 0003081 271.0937  88.9870 14.99291388 24540,6947.221,96.045,571.227,566.946,0.0
55276.0,STARLINK-5261,PAYLOAD,2023-06-23 05:23:15,14.99306782,0.0003111,69.9991,1.9087,268.0455,92.0348,-0.00012029,-1.566e-05,0.0,0 STARLINK-5261,1 55276U 23010H   23174.22448852 -.00001566  00000-0 -12029-3 0  9990,2 55276  69.9991   1.9087 0003111 268.0455  92.0348 14.99306782 24608,6947.174,96.044,571.2,566.878,0.0
55276.0,STARLINK-5261,PAYLOAD,2023-06-24 05:24:20,14.99299234,0.0003079,69.999,359.3813,269.9237,90.157,-1.8324e-05,-3.18e-06,0.0,0 STARLINK-5261,1 55276U 23010H   23175.22524169 -.00000318  00000-0 -18324-4 0  9996,2 55276  69.9990 359.3813 0003079 269.9237  90.1570 14.99299234 24750,6947.197,96.045,571.201,566.923,0.0
55276.0,STARLINK-5261,PAYLOAD,2023-06-25 16:37:56,14.99299176,0.0003074,69.9989,355.6746,268.5954,91.4853,-1.8338e-05,-3.18e-06,0.0,0 STARLINK-5261,1 55276U 23010H   23176.69301249 -.00000318  00000-0 -18338-4 0  9995,2 55276  69.9989 355.6746 0003074 268.5954  91.4853 14.99299176 24975,6947.197,96.045,571.198,566.927,0.0
55276.0,STARLINK-5261,PAYLOAD,2023-06-26 16:39:01,14.99296321,0.0003101,69.9988,353.1471,269.2776,90.8028,2.9487e-05,2.67e-06,0.0,0 STARLINK-5261,1 55276U 23010H   23177.69376547  .00000267  00000-0  29487-4 0  9997,2 55276  69.9988 353.1471 0003101 269.2776  90.8028 14.99296321 25127,6947.206,96.045,571.226,566.917,0.0
55276.0,STARLINK-5261,PAYLOAD,2023-06-27 19:52:14,14.99303566,0.0003101,69.999,350.2824,269.3268,90.7536,3.6545e-05,3.53e-06,0.0,0 STARLINK-5261,1 55276U 23010H   23178.82794627  .00000353  00000-0  36545-4 0  9995,2 55276  69.9990 350.2824 0003101 269.3268  90.7536 14.99303566 25298,6947.184,96.045,571.203,566.895,0.0
55276.0,STARLINK-5261,PAYLOAD,2023-06-28 19:53:19,14.99302023,0.0003141,69.999,347.7553,269.3178,90.7621,9.1804e-06,1.8e-07,0.0,0 STARLINK-5261,1 55276U 23010H   23179.82869912  .00000018  00000-0  91804-5 0  9994,2 55276  69.9990 347.7553 0003141 269.3178  90.7621 14.99302023 25441,6947.189,96.045,571.236,566.872,0.0
55276.0,STARLINK-5261,PAYLOAD,2023-06-29 18:18:38,14.99080794,0.0004429,69.9994,345.3996,304.2019,55.8721,-0.0023177,-0.00028182,0.0,0 STARLINK-5261,1 55276U 23010H   23180.76294925 -.00028182  00000-0 -23177-2 0  9994,2 55276  69.9994 345.3996 0004429 304.2019  55.8721 14.99080794 25589,6947.872,96.059,572.814,566.66,0.0
55276.0,STARLINK-5261,PAYLOAD,2023-06-30 16:44:30,14.98701427,0.0003004,69.9988,343.0406,266.3893,93.6922,-0.0052957,-0.00063319,0.0,0 STARLINK-5261,1 55276U 23010H   23181.69757243 -.00063319  00000-0 -52957-2 0  9993,2 55276  69.9988 343.0406 0003004 266.3893  93.6922 14.98701427 25720,6949.045,96.083,572.997,568.822,0.0
55276.0,STARLINK-5261,PAYLOAD,2023-07-01 18:22:23,14.98599416,0.0003056,69.9989,340.3469,252.4512,107.6314,-0.0044226,-0.00052834,0.0,0 STARLINK-5261,1 55276U 23010H   23182.76554681 -.00052834  00000-0 -44226-2 0  9993,2 55276  69.9989 340.3469 0003056 252.4512 107.6314 14.98599416 25882,6949.36,96.09,573.349,569.101,0.0
55276.0,STARLINK-5261,PAYLOAD,2023-07-02 03:59:11,14.98450965,0.0003349,69.9988,339.3366,275.4602,84.6175,-0.0019911,-0.00023845,0.0,0 STARLINK-5261,1 55276U 23010H   23183.16610073 -.00023845  00000-0 -19911-2 0  9999,2 55276  69.9988 339.3366 0003349 275.4602  84.6175 14.98450965 25946,6949.819,96.099,574.011,569.356,0.0
55276.0,STARLINK-5261,PAYLOAD,2023-07-03 12:01:55,14.98321022,0.0003004,69.9988,335.9702,270.822,89.2594,-6.7897e-05,-9.03e-06,0.0,0 STARLINK-5261,1 55276U 23010H   23184.50133467 -.00000903  00000-0 -67897-4 0  9993,2 55276  69.9988 335.9702 0003004 270.8220  89.2594 14.98321022 26145,6950.221,96.108,574.174,569.998,0.0
55276.0,STARLINK-5261,PAYLOAD,2023-07-04 12:03:55,14.98332831,0.0003077,69.9989,333.4447,269.5609,90.5197,-3.4697e-05,-5.07e-06,0.0,0 STARLINK-5261,1 55276U 23010H   23185.50272708 -.00000507  00000-0 -34697-4 0  9998,2 55276  69.9989 333.4447 0003077 269.5609  90.5197 14.98332831 26291,6950.184,96.107,574.188,569.911,0.0
55276.0,STARLINK-5261,PAYLOAD,2023-07-05 02:29:07,14.98337687,0.0003033,69.9991,331.9307,270.4959,89.5853,-1.1974e-05,-2.36e-06,0.0,0 STARLINK-5261,1 55276U 23010H   23186.10356143 -.00000236  00000-0 -11974-4 0  9993,2 55276  69.9991 331.9307 0003033 270.4959  89.5853 14.98337687 26384,6950.169,96.107,574.142,569.926,0.0
55276.0,STARLINK-5261,PAYLOAD,2023-07-06 02:31:08,14.98333869,0.0003004,69.9992,329.4038,273.1019,86.9796,7.4602e-05,7.97e-06,0.0,0 STARLINK-5261,1 55276U 23010H   23187.10495703  .00000797  00000-0  74602-4 0  9997,2 55276  69.9992 329.4038 0003004 273.1019  86.9796 14.98333869 26535,6950.181,96.107,574.134,569.958,0.0
55276.0,STARLINK-5261,PAYLOAD,2023-07-07 02:33:09,14.98334978,0.0002993,69.9995,326.8801,269.9047,90.1769,-3.542e-05,-5.16e-06,0.0,0 STARLINK-5261,1 55276U 23010H   23188.10635545 -.00000516  00000-0 -35420-4 0  9994,2 55276  69.9995 326.8801 0002993 269.9047  90.1769 14.98334978 26682,6950.177,96.107,574.123,569.962,0.0
55276.0,STARLINK-5261,PAYLOAD,2023-07-08 08:59:42,14.98328697,0.0003014,69.9994,323.6819,269.6465,90.4349,-2.2245e-05,-3.58e-06,0.0,0 STARLINK-5261,1 55276U 23010H   23189.37479490 -.00000358  00000-0 -22245-4 0  9994,2 55276  69.9994 323.6819 0003014 269.6465  90.4349 14.98328697 26870,6950.197,96.107,574.157,569.967,0.0
55276.0,STARLINK-5261,PAYLOAD,2023-07-09 12:13:59,14.98326087,0.0003093,69.9992,320.8191,269.0376,91.0428,4.9459e-06,-3.4e-07,0.0,0 STARLINK-5261,1 55276U 23010H   23190.50971538 -.00000034  00000-0  49459-5 0  9998,2 55276  69.9992 320.8191 0003093 269.0376  91.0428 14.98326087 27048,6950.205,96.107,574.22,569.92,0.0
55276.0,STARLINK-5261,PAYLOAD,2023-07-10 15:28:16,14.98333089,0.0003147,69.9993,317.9579,268.9361,91.1437,4.0624e-05,3.92e-06,0.0,0 STARLINK-5261,1 55276U 23010H   23191.64462977  .00000392  00000-0  40624-4 0  9996,2 55276  69.9993 317.9579 0003147 268.9361  91.1437 14.98333089 27218,6950.183,96.107,574.236,569.861,0.0
